STARLINK-3199           
1 49760U 21115AN  26001.60061761  .00000928  00000+0  76419-4 0  9991
2 49760  53.2194  80.2958 0001483 101.9171 258.1988 15.08837276225557
STARLINK-3203           
1 49761U 21115AP  26001.52332957  .00001197  00000+0  93268-4 0  9991
2 49761  53.2183  80.6435 0001069  84.9555 275.1559 15.08851527225532
STARLINK-3195           
1 49762U 21115AQ  26001.60797588 -.00000268  00000+0  12388-5 0  9990
2 49762  53.2182  80.2639 0001452 104.2891 255.8262 15.08839094225552
STARLINK-3198           
1 49763U 21115AR  26001.59694400  .00014950  00000+0  95468-3 0  9998
2 49763  53.2185  80.3134 0001532  89.2114 270.9054 15.08866746225557
STARLINK-3227           
1 49765U 21115AT  26001.60524751  .00002276  00000+0  16096-3 0  9991
2 49765  53.2180  80.2837 0001130 100.2883 259.8237 15.08853856225551
STARLINK-3190           
1 49766U 21115AU  26001.48749346  .00000039  00000+0  20517-4 0  9996
2 49766  53.2178  80.8138 0001204  86.0136 274.0994 15.08836195225537
STARLINK-3192           
1 49767U 21115AV  26001.47917767  .00000251  00000+0  33832-4 0  9990
2 49767  53.2175  80.8395 0001299 101.4890 258.6248 15.08837543225531
STARLINK-3196           
1 49768U 21115AW  26001.49388803  .00000352  00000+0  40212-4 0  9998
2 49768  53.2168  80.7741 0001286  96.2265 263.8874 15.08844780225535
STARLINK-3208           
1 49769U 21115AX  26001.49485468  .00000375  00000+0  41658-4 0  9994
2 49769  53.2168  80.8201 0001584  94.6680 265.4493 15.08840327225530
STARLINK-3191           
1 49770U 21115AY  26001.50221894  .00000146  00000+0  27287-4 0  9997
2 49770  53.2176  80.7833 0001200  89.8933 270.2197 15.08835168226659
STARLINK-3201           
1 49771U 21115AZ  26001.50126940 -.00000757  00000+0 -29528-4 0  9994
2 49771  53.2181  80.7435 0001220  76.8132 283.2996 15.08821622225530
STARLINK-3297           
1 50159U 21125D   25365.99806575 -.00001175  00000+0 -55760-4 0  9993
2 50159  53.2168 203.0125 0001293  92.2106 267.9035 15.08835269226239
STARLINK-3304           
1 50161U 21125F   25365.87565407  .00000668  00000+0  60069-4 0  9991
2 50161  53.2161 203.5520 0001463  91.5387 268.5773 15.08840226226214
STARLINK-3306           
1 50163U 21125H   26001.52149834  .00000404  00000+0  43452-4 0  9990
2 50163  53.2171 180.6376 0001395  93.8165 266.2987 15.08834354226592
STARLINK-3298           
1 50165U 21125K   25365.79469817  .00000230  00000+0  32539-4 0  9990
2 50165  53.2177 203.9171 0001463  94.1863 265.9297 15.08834643226251
STARLINK-3305           
1 50166U 21125L   25365.81126514  .00002243  00000+0  15890-3 0  9994
2 50166  53.2157 193.7675 0001336 107.7719 252.3419 15.08854193226343
STARLINK-3271           
1 50167U 21125M   25365.98701396  .00000805  00000+0  68653-4 0  9998
2 50167  53.2170 203.0617 0001527  95.3839 264.7328 15.08836033226234
STARLINK-3296           
1 50168U 21125N   26001.63052447  .00752648  30943-3  87510-3 0  9999
2 50168  53.2099 173.2834 0003094 176.5254 183.5803 16.08257710226717
STARLINK-3301           
1 50169U 21125P   26001.51320522 -.00000775  00000+0 -30622-4 0  9998
2 50169  53.2166 190.6891 0001556 102.3166 257.8000 15.08847958226463
STARLINK-3245           
1 50170U 21125Q   25365.80665654 -.00000664  00000+0 -23656-4 0  9998
2 50170  53.2167 193.8575 0001603  88.6945 271.4231 15.08834411226349
STARLINK-3286           
1 50171U 21125R   26001.61626066  .00001420  00000+0  10731-3 0  9998
2 50171  53.2150 190.2263 0001256  82.8423 277.2712 15.08834872226471
STARLINK-3287           
1 50172U 21125S   26001.52794037 -.00000396  00000+0 -67938-5 0  9999
2 50172  53.2164 190.6205 0001456  84.9328 275.1830 15.08835911226491
STARLINK-3289           
1 50173U 21125T   26001.62822296 -.00000053  00000+0  14776-4 0  9990
2 50173  53.2169 180.2374 0001442  87.9295 272.1862 15.08842810226623
STARLINK-3292           
1 50174U 21125U   26001.49446739  .00000691  00000+0  61497-4 0  9999
2 50174  53.2170 186.3821 0001274  95.4897 264.6241 15.08837264226562
STARLINK-3291           
1 50175U 21125V   25365.81033476  .00000810  00000+0  68966-4 0  9999
2 50175  53.2162 193.8409 0001270 100.4023 259.7113 15.08837674226358
STARLINK-3293           
1 50176U 21125W   26001.52057104  .00000705  00000+0  62377-4 0  9993
2 50176  53.2166 190.6565 0001218  64.5996 295.5123 15.08843307226508
STARLINK-3282           
1 50177U 21125X   26001.53161267  .00000532  00000+0  51524-4 0  9991
2 50177  53.2167 190.6038 0001321  83.3125 276.8018 15.08839173226469
STARLINK-3284           
1 50178U 21125Y   26001.66667824  .00262211  00000+0  94337-3 0  9998
2 50178  53.2120 159.6965 0002345 313.3379 186.5487 15.87487338  5974
STARLINK-3283           
1 50179U 21125Z   26001.52425162 -.00000043  00000+0  15372-4 0  9998
2 50179  53.2164 190.6408 0001317 124.3388 235.7729 15.08844107226467
STARLINK-3265           
1 50180U 21125AA  26001.51049583 -.00000216  00000+0  44906-5 0  9996
2 50180  53.2168 190.7099 0001413  88.5400 271.5754 15.08838204226505
STARLINK-3285           
1 50181U 21125AB  26001.50315390 -.00000172  00000+0  72627-5 0  9990
2 50181  53.2162 190.7417 0001344  89.6693 270.4454 15.08824146226463
STARLINK-3277           
1 50182U 21125AC  26001.54631834  .00000219  00000+0  31822-4 0  9991
2 50182  53.2167 190.3847 0001325  98.3399 261.7743 15.08834426226502
STARLINK-3281           
1 50183U 21125AD  26001.49849485  .00000812  00000+0  69130-4 0  9991
2 50183  53.2189 190.7573 0001532  91.2718 268.8450 15.08839085226503
STARLINK-3279           
1 50185U 21125AF  25365.91338275  .00003201  00000+0  21904-3 0  9993
2 50185  53.2151 193.4191 0001421  92.2604 267.8551 15.08855623226374
STARLINK-3274           
1 50186U 21125AG  26001.51965667  .00001169  00000+0  91508-4 0  9998
2 50186  53.2180 200.6629 0001409  93.3285 266.7869 15.08838286226317
STARLINK-3272           
1 50187U 21125AH  25365.88485984 -.00000910  00000+0 -39071-4 0  9992
2 50187  53.2174 183.5097 0001447  88.8487 271.2671 15.08835697226487
STARLINK-3276           
1 50189U 21125AK  26001.55375137  .00002850  00000+0  19606-3 0  9998
2 50189  53.2154 190.5061 0001563 106.8634 253.2530 15.09036940226502
STARLINK-3268           
1 50190U 21125AL  26001.46997700  .00000119  00000+0  25566-4 0  9995
2 50190  53.2171 180.8791 0001296  92.3337 267.7804 15.08835891226580
STARLINK-3273           
1 50191U 21125AM  26001.54541463  .00000890  00000+0  74000-4 0  9999
2 50191  53.2160 200.5426 0001098  84.9980 275.1138 15.08841067226311
STARLINK-3259           
1 50192U 21125AN  26001.46629879  .00000252  00000+0  33920-4 0  9997
2 50192  53.2163 180.9002 0001293  82.0685 278.0454 15.08840854226589
STARLINK-3261           
1 50193U 21125AP  26001.47733660  .00000881  00000+0  73418-4 0  9997
2 50193  53.2169 180.8496 0001362  88.5799 271.5349 15.08837633226634
STARLINK-3269           
1 50194U 21125AQ  26001.66667824  .00276649  00000+0  25505-2 0  9996
2 50194  53.2148 106.9328 0002459  45.5987  13.4375 15.66226446  5944
STARLINK-3266           
1 50195U 21125AR  26001.47365936  .00000380  00000+0  41952-4 0  9998
2 50195  53.2179 180.8647 0001595 101.6333 258.4838 15.08835778226583
STARLINK-3267           
1 50197U 21125AT  26001.65765663  .00000589  00000+0  55107-4 0  9999
2 50197  53.2157 180.0368 0001420  98.0282 262.0872 15.08837290226661
STARLINK-3264           
1 50198U 21125AU  26001.51045386  .00000527  00000+0  51197-4 0  9995
2 50198  53.2160 180.6986 0001429  91.9809 268.1347 15.08839190226591
STARLINK-3270           
1 50199U 21125AV  26001.49204274  .00001473  00000+0  11060-3 0  9991
2 50199  53.2161 180.7830 0001413  88.9566 271.1588 15.08851443226586
STARLINK-3235           
1 50200U 21125AW  26001.51413218  .00000168  00000+0  28651-4 0  9992
2 50200  53.2166 180.6422 0001185  93.4041 266.7087 15.08834518226606
STARLINK-3255           
1 50201U 21125AX  26001.56958588  .00091637  00000+0  86146-3 0  9995
2 50201  53.2046 112.4296 0000164 268.5476  91.5523 15.66407568227569
STARLINK-3256           
1 50202U 21125AY  25365.89221872  .00002740  00000+0  19025-3 0  9992
2 50202  53.2164 183.4763 0001262  97.5466 262.5669 15.08828679226495
STARLINK-3257           
1 50203U 21125AZ  26001.52246463  .00000509  00000+0  50107-4 0  9992
2 50203  53.2169 180.7333 0001631  96.4669 263.6509 15.08835123226652
STARLINK-3254           
1 50204U 21125BA  26001.62917359  .00000316  00000+0  37924-4 0  9991
2 50204  53.2167 180.1783 0001304  86.4651 273.6490 15.08840826226668
STARLINK-3260           
1 50205U 21125BB  26001.56936964 -.00001506  00000+0 -76526-4 0  9993
2 50205  53.2175 150.4336 0001183  67.3308 292.7810 15.08844607227024
STARLINK-3258           
1 50206U 21125BC  26001.48931462  .00000875  00000+0  73059-4 0  9997
2 50206  53.2176 180.6917 0001295  93.7637 266.3504 15.08842145224511
STARLINK-3262           
1 50207U 21125BD  26001.66667824  .00351211  00000+0  18964-1 0  9990
2 50207  53.2171 179.9643 0001037  83.8902 103.4297 15.12566504  5753
STARLINK-3323           
1 50804U 22001B   26001.58774009  .00002124  00000+0  15147-3 0  9990
2 50804  53.2182 100.3537 0001165  92.0276 268.0850 15.08842904220417
STARLINK-3333           
1 50805U 22001C   26001.58405857  .00000846  00000+0  71252-4 0  9992
2 50805  53.2182 100.3702 0001376  85.8679 274.2471 15.08837093220414
STARLINK-3335           
1 50806U 22001D   26001.64660896  .00001290  00000+0  99117-4 0  9990
2 50806  53.2177 100.0886 0001310  98.0972 262.0169 15.08844085220428
STARLINK-3355           
1 50808U 22001F   26001.50677963  .00000609  00000+0  56378-4 0  9995
2 50808  53.2192 100.7160 0001223  88.2184 271.8949 15.08833887220408
STARLINK-3232           
1 50809U 22001G   26001.57669650  .00001876  00000+0  13597-3 0  9999
2 50809  53.2189 100.4034 0001398  96.8077 263.3075 15.08834299220416
